start=new Date('2022-06-08T00:00:00.000Z').valueOf();
sats=[{"CENTER_NAME":"EARTH","TLE_LINE1":"1 48695U 21044BK  22158.59634787 -.00000532  00000-0 -16818-4 0  9990","ARG_OF_PERICENTER":"61.5159","NORAD_CAT_ID":"48695","PERIOD":"95.592","DECAY_DATE":null,"INCLINATION":"53.0560","LAUNCH_DATE":"2021-05-26","SEMIMAJOR_AXIS":"6925.335","EPHEMERIS_TYPE":"0","TLE_LINE2":"2 48695  53.0560 121.7477 0002231  61.5159 298.6054 15.06404466 57548","REV_AT_EPOCH":"5754","MEAN_MOTION_DOT":"-0.00000532","BSTAR":"-0.00001681800000","CLASSIFICATION_TYPE":"U","MEAN_ANOMALY":"298.6054","APOAPSIS":"548.745","MEAN_MOTION":"15.06404466","COUNTRY_CODE":"US","REF_FRAME":"TEME","PERIAPSIS":"545.655","MEAN_ELEMENT_THEORY":"SGP4","RA_OF_ASC_NODE":"121.7477","EPOCH":"2022-06-07T14:18:44.455968","OBJECT_NAME":"STARLINK-2616","SITE":"AFETR","OBJECT_TYPE":"PAYLOAD","GP_ID":"205594768","FILE":"3485136","RCS_SIZE":"LARGE","OBJECT_ID":"2021-044BK","MEAN_MOTION_DDOT":"0.0000000000000","ELEMENT_SET_NO":"999","ECCENTRICITY":"0.00022310","TIME_SYSTEM":"UTC"},{"REF_FRAME":"TEME","COUNTRY_CODE":"US","MEAN_MOTION":"15.06405337","PERIAPSIS":"545.861","APOAPSIS":"548.534","MEAN_ANOMALY":"300.7856","BSTAR":"0.00008293200000","CLASSIFICATION_TYPE":"U","MEAN_MOTION_DOT":"0.00000954","REV_AT_EPOCH":"5743","INCLINATION":"53.0537","TLE_LINE2":"2 48696  53.0537 127.9750 0001930  59.3323 300.7856 15.06405337 57439","LAUNCH_DATE":"2021-05-26","SEMIMAJOR_AXIS":"6925.332","EPHEMERIS_TYPE":"0","TLE_LINE1":"1 48696U 21044BL  22158.32128387  .00000954  00000-0  82932-4 0  9992","ARG_OF_PERICENTER":"59.3323","CENTER_NAME":"EARTH","DECAY_DATE":null,"PERIOD":"95.592","NORAD_CAT_ID":"48696","ECCENTRICITY":"0.00019300","ELEMENT_SET_NO":"999","TIME_SYSTEM":"UTC","RCS_SIZE":"LARGE","MEAN_MOTION_DDOT":"0.0000000000000","OBJECT_ID":"2021-044BL","GP_ID":"205565010","FILE":"3484919","EPOCH":"2022-06-07T07:42:38.926368","RA_OF_ASC_NODE":"127.9750","MEAN_ELEMENT_THEORY":"SGP4","OBJECT_TYPE":"PAYLOAD","SITE":"AFETR","OBJECT_NAME":"STARLINK-2753"},{"OBJECT_ID":"2021-044BM","MEAN_MOTION_DDOT":"0.0000000000000","RCS_SIZE":"LARGE","TIME_SYSTEM":"UTC","ECCENTRICITY":"0.00022970","ELEMENT_SET_NO":"999","OBJECT_NAME":"STARLINK-2715","OBJECT_TYPE":"PAYLOAD","SITE":"AFETR","MEAN_ELEMENT_THEORY":"SGP4","RA_OF_ASC_NODE":"125.4285","EPOCH":"2022-06-07T21:09:25.856064","FILE":"3485136","GP_ID":"205595763","MEAN_MOTION_DOT":"-0.00000151","REV_AT_EPOCH":"5751","CLASSIFICATION_TYPE":"U","BSTAR":"0.00000877610000","MEAN_ANOMALY":"300.4712","APOAPSIS":"548.804","PERIAPSIS":"545.623","MEAN_MOTION":"15.06400069","COUNTRY_CODE":"US","REF_FRAME":"TEME","NORAD_CAT_ID":"48697","PERIOD":"95.592","DECAY_DATE":null,"CENTER_NAME":"EARTH","TLE_LINE1":"1 48697U 21044BM  22158.88154926 -.00000151  00000-0  87761-5 0  9998","ARG_OF_PERICENTER":"59.6503","EPHEMERIS_TYPE":"0","LAUNCH_DATE":"2021-05-26","SEMIMAJOR_AXIS":"6925.348","TLE_LINE2":"2 48697  53.0545 125.4285 0002297  59.6503 300.4712 15.06400069 57519","INCLINATION":"53.0545"},{"BSTAR":"-0.06737800000000","CLASSIFICATION_TYPE":"U","MEAN_ANOMALY":"72.3584","MEAN_MOTION_DOT":"-0.01052682","REV_AT_EPOCH":"5308","APOAPSIS":"533.466","MEAN_MOTION":"15.11343285","REF_FRAME":"TEME","COUNTRY_CODE":"US","PERIAPSIS":"530.742","CENTER_NAME":"EARTH","TLE_LINE1":"1 48879U 21059A   22158.91667824 -.01052682  00000-0 -67378-1 0  9992","ARG_OF_PERICENTER":"88.0458","PERIOD":"95.279","NORAD_CAT_ID":"48879","DECAY_DATE":null,"INCLINATION":"97.5138","TLE_LINE2":"2 48879  97.5138 289.7502 0001971  88.0458  72.3584 15.11343285 53083","SEMIMAJOR_AXIS":"6910.239","LAUNCH_DATE":"2021-06-30","EPHEMERIS_TYPE":"0","RCS_SIZE":"LARGE","OBJECT_ID":"2021-059A","MEAN_MOTION_DDOT":"0.0000000000000","ELEMENT_SET_NO":"999","ECCENTRICITY":"0.00019710","TIME_SYSTEM":"UTC","RA_OF_ASC_NODE":"289.7502","MEAN_ELEMENT_THEORY":"SGP4","EPOCH":"2022-06-07T22:00:00.999936","OBJECT_TYPE":"PAYLOAD","SITE":"AFETR","OBJECT_NAME":"STARLINK-3003","GP_ID":"205569472","FILE":"3484964"},{"REF_FRAME":"TEME","COUNTRY_CODE":"US","MEAN_MOTION":"15.11284706","PERIAPSIS":"530.914","APOAPSIS":"533.652","MEAN_ANOMALY":"79.1206","BSTAR":"-0.06748100000000","CLASSIFICATION_TYPE":"U","REV_AT_EPOCH":"5308","MEAN_MOTION_DOT":"-0.01052586","INCLINATION":"97.5137","TLE_LINE2":"2 48880  97.5137 289.7478 0001981  91.3603  79.1206 15.11284706 53084","SEMIMAJOR_AXIS":"6910.418","LAUNCH_DATE":"2021-06-30","EPHEMERIS_TYPE":"0","ARG_OF_PERICENTER":"91.3603","TLE_LINE1":"1 48880U 21059B   22158.91667824 -.01052586  00000-0 -67481-1 0  9992","CENTER_NAME":"EARTH","DECAY_DATE":null,"PERIOD":"95.283","NORAD_CAT_ID":"48880","ELEMENT_SET_NO":"999","ECCENTRICITY":"0.00019810","TIME_SYSTEM":"UTC","RCS_SIZE":"LARGE","MEAN_MOTION_DDOT":"0.0000000000000","OBJECT_ID":"2021-059B","GP_ID":"205568761","FILE":"3484948","EPOCH":"2022-06-07T22:00:00.999936","RA_OF_ASC_NODE":"289.7478","MEAN_ELEMENT_THEORY":"SGP4","OBJECT_TYPE":"PAYLOAD","SITE":"AFETR","OBJECT_NAME":"STARLINK-3004"},{"OBJECT_ID":"2021-059C","MEAN_MOTION_DDOT":"0.0000000000000","RCS_SIZE":"LARGE","TIME_SYSTEM":"UTC","ELEMENT_SET_NO":"999","ECCENTRICITY":"0.00021330","OBJECT_NAME":"STARLINK-3005","OBJECT_TYPE":"PAYLOAD","SITE":"AFETR","MEAN_ELEMENT_THEORY":"SGP4","RA_OF_ASC_NODE":"289.7772","EPOCH":"2022-06-07T22:00:00.999936","FILE":"3485042","GP_ID":"205571560","MEAN_MOTION_DOT":"-0.01052038","REV_AT_EPOCH":"5308","BSTAR":"-0.06686900000000","CLASSIFICATION_TYPE":"U","MEAN_ANOMALY":"122.5723","APOAPSIS":"532.822","PERIAPSIS":"529.875","MEAN_MOTION":"15.11591325","COUNTRY_CODE":"US","REF_FRAME":"TEME","NORAD_CAT_ID":"48881","PERIOD":"95.264","DECAY_DATE":null,"CENTER_NAME":"EARTH","TLE_LINE1":"1 48881U 21059C   22158.91667824 -.01052038  00000-0 -66869-1 0  9994","ARG_OF_PERICENTER":"66.7084","SEMIMAJOR_AXIS":"6909.483","LAUNCH_DATE":"2021-06-30","EPHEMERIS_TYPE":"0","TLE_LINE2":"2 48881  97.5137 289.7772 0002133  66.7084 122.5723 15.11591325 53086","INCLINATION":"97.5137"},{"MEAN_MOTION":"14.98329976","REF_FRAME":"TEME","COUNTRY_CODE":"US","PERIAPSIS":"570.168","MEAN_ANOMALY":"88.7275","BSTAR":"-0.00005619900000","CLASSIFICATION_TYPE":"U","REV_AT_EPOCH":"4163","MEAN_MOTION_DOT":"-0.00000763","APOAPSIS":"573.948","INCLINATION":"69.9961","TLE_LINE2":"2 49131  69.9961 110.6802 0002719 271.3572  88.7275 14.98329976 41633","LAUNCH_DATE":"2021-09-14","SEMIMAJOR_AXIS":"6950.193","EPHEMERIS_TYPE":"0","CENTER_NAME":"EARTH","TLE_LINE1":"1 49131U 21082B   22158.91121592 -.00000763  00000-0 -56199-4 0  9991","ARG_OF_PERICENTER":"271.3572","PERIOD":"96.107","NORAD_CAT_ID":"49131","DECAY_DATE":null,"ECCENTRICITY":"0.00027190","ELEMENT_SET_NO":"999","TIME_SYSTEM":"UTC","RCS_SIZE":"LARGE","OBJECT_ID":"2021-082B","MEAN_MOTION_DDOT":"0.0000000000000","GP_ID":"205597064","FILE":"3485136","RA_OF_ASC_NODE":"110.6802","MEAN_ELEMENT_THEORY":"SGP4","EPOCH":"2022-06-07T21:52:09.055488","OBJECT_TYPE":"PAYLOAD","SITE":"AFWTR","OBJECT_NAME":"STARLINK-3096"},{"APOAPSIS":"574.149","REV_AT_EPOCH":"4061","MEAN_MOTION_DOT":"-0.00000890","MEAN_ANOMALY":"88.6875","BSTAR":"-0.00006677200000","CLASSIFICATION_TYPE":"U","PERIAPSIS":"569.948","COUNTRY_CODE":"US","REF_FRAME":"TEME","MEAN_MOTION":"14.98332961","DECAY_DATE":null,"NORAD_CAT_ID":"49132","PERIOD":"96.107","TLE_LINE1":"1 49132U 21082C   22158.67696023 -.00000890  00000-0 -66772-4 0  9990","ARG_OF_PERICENTER":"271.3938","CENTER_NAME":"EARTH","LAUNCH_DATE":"2021-09-14","SEMIMAJOR_AXIS":"6950.184","EPHEMERIS_TYPE":"0","TLE_LINE2":"2 49132  69.9976 151.2539 0003022 271.3938  88.6875 14.98332961 40612","INCLINATION":"69.9976","MEAN_MOTION_DDOT":"0.0000000000000","OBJECT_ID":"2021-082C","RCS_SIZE":"LARGE","TIME_SYSTEM":"UTC","ELEMENT_SET_NO":"999","ECCENTRICITY":"0.00030220","OBJECT_NAME":"STARLINK-3090","OBJECT_TYPE":"PAYLOAD","SITE":"AFWTR","EPOCH":"2022-06-07T16:14:49.363872","MEAN_ELEMENT_THEORY":"SGP4","RA_OF_ASC_NODE":"151.2539","FILE":"3485136","GP_ID":"205595819"},{"BSTAR":"0.00006349000000","CLASSIFICATION_TYPE":"U","MEAN_ANOMALY":"90.4840","REV_AT_EPOCH":"4058","MEAN_MOTION_DOT":"0.00000664","APOAPSIS":"574.248","PERIAPSIS":"569.955","MEAN_MOTION":"14.98315853","REF_FRAME":"TEME","COUNTRY_CODE":"US","PERIOD":"96.108","NORAD_CAT_ID":"49133","DECAY_DATE":null,"CENTER_NAME":"EARTH","TLE_LINE1":"1 49133U 21082D   22158.47193699  .00000664  00000-0  63490-4 0  9991","ARG_OF_PERICENTER":"269.5965","TLE_LINE2":"2 49133  69.9983 151.7799 0003088 269.5965  90.4840 14.98315853 40585","SEMIMAJOR_AXIS":"6950.237","LAUNCH_DATE":"2021-09-14","EPHEMERIS_TYPE":"0","INCLINATION":"69.9983","OBJECT_ID":"2021-082D","MEAN_MOTION_DDOT":"0.0000000000000","RCS_SIZE":"LARGE","TIME_SYSTEM":"UTC","ECCENTRICITY":"0.00030880","ELEMENT_SET_NO":"999","SITE":"AFWTR","OBJECT_TYPE":"PAYLOAD","OBJECT_NAME":"STARLINK-3077","RA_OF_ASC_NODE":"151.7799","MEAN_ELEMENT_THEORY":"SGP4","EPOCH":"2022-06-07T11:19:35.355936","FILE":"3484919","GP_ID":"205566561"},{"MEAN_MOTION_DDOT":"0.0000000000000","OBJECT_ID":"2021-082E","RCS_SIZE":"LARGE","TIME_SYSTEM":"UTC","ELEMENT_SET_NO":"999","ECCENTRICITY":"0.00034060","OBJECT_NAME":"STARLINK-3078","OBJECT_TYPE":"PAYLOAD","SITE":"AFWTR","EPOCH":"2022-06-07T09:36:33.106752","MEAN_ELEMENT_THEORY":"SGP4","RA_OF_ASC_NODE":"151.9541","FILE":"3484919","GP_ID":"205566811","APOAPSIS":"574.441","REV_AT_EPOCH":"4177","MEAN_MOTION_DOT":"-0.00001312","CLASSIFICATION_TYPE":"U","BSTAR":"-0.00010221000000","MEAN_ANOMALY":"83.0865","PERIAPSIS":"569.707","COUNTRY_CODE":"US","REF_FRAME":"TEME","MEAN_MOTION":"14.98324768","DECAY_DATE":null,"NORAD_CAT_ID":"49134","PERIOD":"96.107","ARG_OF_PERICENTER":"276.9906","TLE_LINE1":"1 49134U 21082E   22158.40038318 -.00001312  00000-0 -10221-3 0  9997","CENTER_NAME":"EARTH","LAUNCH_DATE":"2021-09-14","SEMIMAJOR_AXIS":"6950.209","EPHEMERIS_TYPE":"0","TLE_LINE2":"2 49134  69.9995 151.9541 0003406 276.9906  83.0865 14.98324768 41779","INCLINATION":"69.9995"}];
